NORAD_CAT_ID,OBJECT_NAME,OBJECT_TYPE,EPOCH,MEAN_MOTION,ECCENTRICITY,INCLINATION,RA_OF_ASC_NODE,ARG_OF_PERICENTER,MEAN_ANOMALY,BSTAR,MEAN_MOTION_DOT,MEAN_MOTION_DDOT,TLE_LINE0,TLE_LINE1,TLE_LINE2,SEMIMAJOR_AXIS,PERIOD,APOGEE,PERIGEE,DECAYED
53852.0,STARLINK-4797,PAYLOAD,2023-06-04 22:12:26,15.08838233,0.0001159,53.2155,137.5701,84.0876,276.0248,5.6576e-05,6.13e-06,0.0,0 STARLINK-4797,1 53852U 22114AL  23155.92530654  .00000613  00000-0  56576-4 0  9996,2 53852  53.2155 137.5701 0001159  84.0876 276.0248 15.08838233 40755,6917.886,95.438,540.553,538.949,0.0
53852.0,STARLINK-4797,PAYLOAD,2023-06-05 04:33:58,15.08840248,0.0001166,53.2154,136.3806,84.2881,275.8244,6.6503e-05,7.71e-06,0.0,0 STARLINK-4797,1 53852U 22114AL  23156.19026513  .00000771  00000-0  66503-4 0  9996,2 53852  53.2154 136.3806 0001166  84.2881 275.8244 15.08840248 40250,6917.88,95.438,540.551,538.938,0.0
53852.0,STARLINK-4797,PAYLOAD,2023-06-05 07:44:45,15.08841804,0.0001175,53.2155,135.7859,83.0982,277.0144,7.7216e-05,9.41e-06,0.0,0 STARLINK-4797,1 53852U 22114AL  23156.32274389  .00000941  00000-0  77216-4 0  9999,2 53852  53.2155 135.7859 0001175  83.0982 277.0144 15.08841804 40815,6917.875,95.437,540.553,538.927,0.0
53852.0,STARLINK-4797,PAYLOAD,2023-06-06 07:35:32,15.08840289,0.0001219,53.2158,131.3254,84.8729,275.2402,7.9433e-05,9.77e-06,0.0,0 STARLINK-4797,1 53852U 22114AL  23157.31634608  .00000977  00000-0  79433-4 0  9995,2 53852  53.2158 131.3254 0001219  84.8729 275.2402 15.08840289 40426,6917.88,95.438,540.588,538.901,0.0
53852.0,STARLINK-4797,PAYLOAD,2023-06-07 07:26:19,15.08842645,0.0001221,53.2155,126.8636,91.2234,268.8898,2.5794e-05,1.23e-06,0.0,0 STARLINK-4797,1 53852U 22114AL  23158.30994640  .00000123  00000-0  25794-4 0  9994,2 53852  53.2155 126.8636 0001221  91.2234 268.8898 15.08842645 41114,6917.872,95.437,540.582,538.893,0.0
53852.0,STARLINK-4797,PAYLOAD,2023-06-07 15:23:15,15.08838354,0.0001205,53.2163,125.3764,88.5795,271.5335,-4.3454e-06,-3.57e-06,0.0,0 STARLINK-4797,1 53852U 22114AL  23158.64115026 -.00000357  00000-0 -43454-5 0  9999,2 53852  53.2163 125.3764 0001205  88.5795 271.5335 15.08838354 40626,6917.885,95.438,540.584,538.917,0.0
53852.0,STARLINK-4797,PAYLOAD,2023-06-08 07:17:07,15.08795971,0.0001457,53.2157,122.4031,98.5421,261.5737,0.00059237,9.141e-05,0.0,0 STARLINK-4797,1 53852U 22114AL  23159.30355905  .00009141  00000-0  59237-3 0  9997,2 53852  53.2157 122.4031 0001457  98.5421 261.5737 15.08795971 40723,6918.015,95.44,540.888,538.872,0.0
53852.0,STARLINK-4797,PAYLOAD,2023-06-09 02:21:43,15.08844672,0.0001276,53.2155,118.8349,87.6806,272.4332,0.0001056,1.393e-05,0.0,0 STARLINK-4797,1 53852U 22114AL  23160.09842468  .00001393  00000-0  10560-3 0  9997,2 53852  53.2155 118.8349 0001276  87.6806 272.4332 15.08844672 40845,6917.866,95.437,540.614,538.848,0.0
53852.0,STARLINK-4797,PAYLOAD,2023-06-09 21:26:22,15.08834947,0.000171,53.2169,115.2665,106.2043,253.9138,3.3698e-05,2.48e-06,0.0,0 STARLINK-4797,1 53852U 22114AL  23160.89331364  .00000248  00000-0  33698-4 0  9999,2 53852  53.2169 115.2665 0001710 106.2043 253.9138 15.08834947 41502,6917.896,95.438,540.944,538.578,0.0
53852.0,STARLINK-4797,PAYLOAD,2023-06-10 03:47:55,15.08832326,0.0001371,53.2164,114.0792,90.6558,269.4591,3.6987e-05,3.01e-06,0.0,0 STARLINK-4797,1 53852U 22114AL  23161.15827687  .00000301  00000-0  36987-4 0  9991,2 53852  53.2164 114.0792 0001371  90.6558 269.4591 15.08832326 41004,6917.904,95.438,540.717,538.82,0.0
53852.0,STARLINK-4797,PAYLOAD,2023-06-10 13:20:13,15.08835716,0.0001153,53.2159,112.2934,87.7522,272.3602,-1.2054e-06,-3.07e-06,0.0,0 STARLINK-4797,1 53852U 22114AL  23161.55571689 -.00000307  00000-0 -12054-5 0  9991,2 53852  53.2159 112.2934 0001153  87.7522 272.3602 15.08835716 41600,6917.893,95.438,540.556,538.961,0.0
53852.0,STARLINK-4797,PAYLOAD,2023-06-10 21:17:09,15.08846614,0.0001201,53.216,110.8067,99.5355,260.5773,-0.00019194,-3.342e-05,0.0,0 STARLINK-4797,1 53852U 22114AL  23161.88691915 -.00003342  00000-0 -19194-3 0  9994,2 53852  53.2160 110.8067 0001201  99.5355 260.5773 15.08846614 41654,6917.86,95.437,540.556,538.894,0.0
53852.0,STARLINK-4797,PAYLOAD,2023-06-11 03:38:41,15.08850351,0.0001326,53.216,109.6178,107.1112,253.0025,-0.00012506,-2.278e-05,0.0,0 STARLINK-4797,1 53852U 22114AL  23162.15187329 -.00002278  00000-0 -12506-3 0  9991,2 53852  53.2160 109.6178 0001326 107.1112 253.0025 15.08850351 41153,6917.849,95.437,540.631,538.796,0.0
53852.0,STARLINK-4797,PAYLOAD,2023-06-11 06:49:29,15.08801932,0.0001559,53.2162,109.0231,96.5359,263.5811,0.00053035,8.154e-05,0.0,0 STARLINK-4797,1 53852U 22114AL  23162.28436444  .00008154  00000-0  53035-3 0  9999,2 53852  53.2162 109.0231 0001559  96.5359 263.5811 15.08801932 41173,6917.997,95.44,540.94,538.783,0.0
53852.0,STARLINK-4797,PAYLOAD,2023-06-11 13:11:01,15.08835898,0.0001218,53.2166,107.8338,95.3007,264.8124,5.7103e-05,6.21e-06,0.0,0 STARLINK-4797,1 53852U 22114AL  23162.54931739  .00000621  00000-0  57103-4 0  9997,2 53852  53.2166 107.8338 0001218  95.3007 264.8124 15.08835898 41753,6917.893,95.438,540.601,538.915,0.0
53852.0,STARLINK-4797,PAYLOAD,2023-06-11 19:32:33,15.08834322,0.0001228,53.2167,106.6444,95.3789,264.7344,7.0745e-05,8.38e-06,0.0,0 STARLINK-4797,1 53852U 22114AL  23162.81427872  .00000838  00000-0  70745-4 0  9992,2 53852  53.2167 106.6444 0001228  95.3789 264.7344 15.08834322 41795,6917.898,95.438,540.612,538.913,0.0
53852.0,STARLINK-4797,PAYLOAD,2023-06-12 13:01:48,15.08835781,0.0001241,53.217,103.3737,91.9061,268.2073,4.5427e-05,4.35e-06,0.0,0 STARLINK-4797,1 53852U 22114AL  23163.54292036  .00000435  00000-0  45427-4 0  9997,2 53852  53.2170 103.3737 0001241  91.9061 268.2073 15.08835781 41909,6917.893,95.438,540.617,538.9,0.0
53852.0,STARLINK-4797,PAYLOAD,2023-06-13 04:55:39,15.08838161,0.0001249,53.2168,100.3999,89.7897,270.3239,7.5903e-05,9.2e-06,0.0,0 STARLINK-4797,1 53852U 22114AL  23164.20531923  .00000920  00000-0  75903-4 0  9993,2 53852  53.2168 100.3999 0001249  89.7897 270.3239 15.08838161 41467,6917.886,95.438,540.615,538.887,0.0
53852.0,STARLINK-4797,PAYLOAD,2023-06-14 04:46:26,15.08843445,0.0001372,53.2162,95.9394,87.2973,272.8176,-1.0987e-05,-4.63e-06,0.0,0 STARLINK-4797,1 53852U 22114AL  23165.19891906 -.00000463  00000-0 -10987-4 0  9997,2 53852  53.2162  95.9394 0001372  87.2973 272.8176 15.08843445 42159,6917.87,95.437,540.684,538.786,0.0
53852.0,STARLINK-4797,PAYLOAD,2023-06-14 19:04:55,15.08839057,0.0001497,53.2173,93.2615,80.4012,279.7149,5.2181e-05,5.43e-06,0.0,0 STARLINK-4797,1 53852U 22114AL  23165.79508127  .00000543  00000-0  52181-4 0  9992,2 53852  53.2173  93.2615 0001497  80.4012 279.7149 15.08839057 42245,6917.883,95.438,540.784,538.713,0.0
53852.0,STARLINK-4797,PAYLOAD,2023-06-15 01:26:27,15.08832598,0.0001482,53.2174,92.0721,81.6776,278.4384,0.00012615,1.72e-05,0.0,0 STARLINK-4797,1 53852U 22114AL  23166.06004408  .00001720  00000-0  12615-3 0  9991,2 53852  53.2174  92.0721 0001482  81.6776 278.4384 15.08832598 41749,6917.903,95.438,540.793,538.743,0.0
53852.0,STARLINK-4797,PAYLOAD,2023-06-15 04:37:13,15.08836497,0.0001567,53.2174,91.4791,77.2963,282.8205,0.00016581,2.352e-05,0.0,0 STARLINK-4797,1 53852U 22114AL  23166.19251894  .00002352  00000-0  16581-3 0  9996,2 53852  53.2174  91.4791 0001567  77.2963 282.8205 15.08836497 41767,6917.891,95.438,540.84,538.672,0.0
53852.0,STARLINK-4797,PAYLOAD,2023-06-16 04:28:00,15.08846891,0.0001325,53.2171,87.0157,95.259,264.8553,6.6233e-05,7.67e-06,0.0,0 STARLINK-4797,1 53852U 22114AL  23167.18611362  .00000767  00000-0  66233-4 0  9994,2 53852  53.2171  87.0157 0001325  95.2590 264.8553 15.08846891 42451,6917.859,95.437,540.641,538.808,0.0
53852.0,STARLINK-4797,PAYLOAD,2023-06-17 01:08:00,15.08850554,0.0001384,53.2156,83.1523,84.9645,275.1505,0.00010573,1.396e-05,0.0,0 STARLINK-4797,1 53852U 22114AL  23168.04722733  .00001396  00000-0  10573-3 0  9999,2 53852  53.2156  83.1523 0001384  84.9645 275.1505 15.08850554 42047,6917.848,95.437,540.671,538.756,0.0
53852.0,STARLINK-4797,PAYLOAD,2023-06-17 18:37:17,15.08826391,0.0001169,53.2166,79.8798,89.6639,270.4487,-0.00014241,-2.553e-05,0.0,0 STARLINK-4797,1 53852U 22114AL  23168.77589266 -.00002553  00000-0 -14241-3 0  9995,2 53852  53.2166  79.8798 0001169  89.6639 270.4487 15.08826391 42151,6917.922,95.438,540.596,538.978,0.0
53852.0,STARLINK-4797,PAYLOAD,2023-06-18 10:31:08,15.08834863,0.0001087,53.2171,76.9065,92.4172,267.6945,-4.2994e-05,-9.72e-06,0.0,0 STARLINK-4797,1 53852U 22114AL  23169.43828799 -.00000972  00000-0 -42994-4 0  9996,2 53852  53.2171  76.9065 0001087  92.4172 267.6945 15.08834863 42795,6917.896,95.438,540.513,539.009,0.0
53852.0,STARLINK-4797,PAYLOAD,2023-06-18 18:28:03,15.08843694,9.03e-05,53.2164,75.4194,81.5364,278.573,-7.2133e-05,-1.436e-05,0.0,0 STARLINK-4797,1 53852U 22114AL  23169.76948566 -.00001436  00000-0 -72133-4 0  9991,2 53852  53.2164  75.4194 0000903  81.5364 278.5730 15.08843694 42304,6917.869,95.437,540.359,539.109,0.0
53852.0,STARLINK-4797,PAYLOAD,2023-06-19 04:00:21,15.08851858,0.0001077,53.2167,73.6368,91.7993,268.3122,5.8797e-05,6.48e-06,0.0,0 STARLINK-4797,1 53852U 22114AL  23170.16691607  .00000648  00000-0  58797-4 0  9990,2 53852  53.2167  73.6368 0001077  91.7993 268.3122 15.08851858 42363,6917.844,95.437,540.454,538.964,0.0
53852.0,STARLINK-4797,PAYLOAD,2023-06-19 10:21:54,15.08847439,0.0001044,53.217,72.4473,86.5232,273.5879,1.9149e-05,1.7e-07,0.0,0 STARLINK-4797,1 53852U 22114AL  23170.43187826  .00000017  00000-0  19149-4 0  9991,2 53852  53.2170  72.4473 0001044  86.5232 273.5879 15.08847439 42944,6917.858,95.437,540.445,539.0,0.0
53852.0,STARLINK-4797,PAYLOAD,2023-06-20 02:15:46,15.08833186,0.0001144,53.2174,69.4741,103.1549,256.9571,0.00013241,1.82e-05,0.0,0 STARLINK-4797,1 53852U 22114AL  23171.09428959  .00001820  00000-0  13241-3 0  9998,2 53852  53.2174  69.4741 0001144 103.1549 256.9571 15.08833186 42500,6917.901,95.438,540.558,538.975,0.0
